[
  {
    "CCSDS_OMM_VERS": "2.0",
    "COMMENT": "GENERATED VIA SPACE-TRACK.ORG API",
    "CREATION_DATE": "2024-03-18T17:21:26",
    "ORIGINATOR": "18 SPCS",
    "OBJECT_NAME": "SENTINEL 3B",
    "OBJECT_ID": "2018-039A",
    "CENTER_NAME": "EARTH",
    "REF_FRAME": "TEME",
    "TIME_SYSTEM": "UTC",
    "MEAN_ELEMENT_THEORY": "SGP4",
    "EPOCH": "2024-03-18T04:17:38.813280",
    "MEAN_MOTION": "14.26742443",
    "ECCENTRICITY": "0.00012790",
    "INCLINATION": "98.6208",
    "RA_OF_ASC_NODE": "146.3513",
    "ARG_OF_PERICENTER": "119.4758",
    "MEAN_ANOMALY": "240.6550",
    "EPHEMERIS_TYPE": "0",
    "CLASSIFICATION_TYPE": "U",
    "NORAD_CAT_ID": "43437",
    "ELEMENT_SET_NO": "999",
    "REV_AT_EPOCH": "30705",
    "BSTAR": "0.00007880900000",
    "MEAN_MOTION_DOT": "0.00000147",
    "MEAN_MOTION_DDOT": "0.0000000000000",
    "SEMIMAJOR_AXIS": "7180.777",
    "PERIOD": "100.929",
    "APOAPSIS": "803.561",
    "PERIAPSIS": "801.724",
    "OBJECT_TYPE": "PAYLOAD",
    "RCS_SIZE": "LARGE",
    "COUNTRY_CODE": "ESA",
    "LAUNCH_DATE": "2018-04-25",
    "SITE": "PKMTR",
    "DECAY_DATE": null,
    "FILE": "4231680",
    "GP_ID": "252060549",
    "TLE_LINE0": "0 SENTINEL 3B",
    "TLE_LINE1": "1 43437U 18039A   24078.17892145  .00000147  00000-0  78809-4 0  9998",
    "TLE_LINE2": "2 43437  98.6208 146.3513 0001279 119.4758 240.6550 14.26742443307057"
  },
  {
    "CCSDS_OMM_VERS": "2.0",
    "COMMENT": "GENERATED VIA SPACE-TRACK.ORG API",
    "CREATION_DATE": "2024-03-19T06:16:17",
    "ORIGINATOR": "18 SPCS",
    "OBJECT_NAME": "SENTINEL 3B",
    "OBJECT_ID": "2018-039A",
    "CENTER_NAME": "EARTH",
    "REF_FRAME": "TEME",
    "TIME_SYSTEM": "UTC",
    "MEAN_ELEMENT_THEORY": "SGP4",
    "EPOCH": "2024-03-19T03:51:27.561888",
    "MEAN_MOTION": "14.26743089",
    "ECCENTRICITY": "0.00012840",
    "INCLINATION": "98.6205",
    "RA_OF_ASC_NODE": "147.3186",
    "ARG_OF_PERICENTER": "119.0413",
    "MEAN_ANOMALY": "241.0896",
    "EPHEMERIS_TYPE": "0",
    "CLASSIFICATION_TYPE": "U",
    "NORAD_CAT_ID": "43437",
    "ELEMENT_SET_NO": "999",
    "REV_AT_EPOCH": "30719",
    "BSTAR": "0.00009516700000",
    "MEAN_MOTION_DOT": "0.00000187",
    "MEAN_MOTION_DDOT": "0.0000000000000",
    "SEMIMAJOR_AXIS": "7180.775",
    "PERIOD": "100.929",
    "APOAPSIS": "803.562",
    "PERIAPSIS": "801.718",
    "OBJECT_TYPE": "PAYLOAD",
    "RCS_SIZE": "LARGE",
    "COUNTRY_CODE": "ESA",
    "LAUNCH_DATE": "2018-04-25",
    "SITE": "PKMTR",
    "DECAY_DATE": null,
    "FILE": "4232211",
    "GP_ID": "252111703",
    "TLE_LINE0": "0 SENTINEL 3B",
    "TLE_LINE1": "1 43437U 18039A   24079.16073567  .00000187  00000-0  95167-4 0  9997",
    "TLE_LINE2": "2 43437  98.6205 147.3186 0001284 119.0413 241.0896 14.26743089307191"
  }
]